start=new Date('2022-03-14T00:00:00.000Z').valueOf();
sats=[{"PERIAPSIS":"545.872","RA_OF_ASC_NODE":"26.4255","ARG_OF_PERICENTER":"49.4413","SITE":"AFETR","TLE_LINE2":"2 44952  53.0563  26.4255 0001861  49.4413 310.6738 15.06417219120550","LAUNCH_DATE":"2020-01-07","ELEMENT_SET_NO":"999","FILE":"3358388","EPOCH":"2022-03-13T21:28:08.901408","MEAN_MOTION":"15.06417219","TIME_SYSTEM":"UTC","OBJECT_NAME":"STARLINK-1117","MEAN_MOTION_DOT":"0.00003041","CLASSIFICATION_TYPE":"U","EPHEMERIS_TYPE":"0","ECCENTRICITY":"0.00018610","GP_ID":"198685767","SEMIMAJOR_AXIS":"6925.296","REV_AT_EPOCH":"12055","TLE_LINE1":"1 44952U 20001AQ  22072.89454747  .00003041  00000-0  22287-3 0  9990","MEAN_ELEMENT_THEORY":"SGP4","CENTER_NAME":"EARTH","APOAPSIS":"548.450","BSTAR":"0.00022287000000","REF_FRAME":"TEME","MEAN_ANOMALY":"310.6738","PERIOD":"95.591","NORAD_CAT_ID":"44952","MEAN_MOTION_DDOT":"0.0000000000000","DECAY_DATE":null,"INCLINATION":"53.0563","COUNTRY_CODE":"US","OBJECT_ID":"2020-001AQ","OBJECT_TYPE":"PAYLOAD","RCS_SIZE":"LARGE"},{"TLE_LINE1":"1 44953U 20001AR  22072.84570294 -.00005038  00000-0 -31969-3 0  9999","REV_AT_EPOCH":"12183","GP_ID":"198686514","SEMIMAJOR_AXIS":"6925.399","APOAPSIS":"548.458","MEAN_ELEMENT_THEORY":"SGP4","CENTER_NAME":"EARTH","PERIOD":"95.593","MEAN_ANOMALY":"302.1867","REF_FRAME":"TEME","BSTAR":"-0.00031969000000","MEAN_MOTION_DDOT":"0.0000000000000","DECAY_DATE":null,"NORAD_CAT_ID":"44953","COUNTRY_CODE":"US","INCLINATION":"53.0539","OBJECT_ID":"2020-001AR","RCS_SIZE":"LARGE","OBJECT_TYPE":"PAYLOAD","ARG_OF_PERICENTER":"57.9289","RA_OF_ASC_NODE":"26.6394","PERIAPSIS":"546.071","LAUNCH_DATE":"2020-01-07","TLE_LINE2":"2 44953  53.0539  26.6394 0001724  57.9289 302.1867 15.06383387121832","SITE":"AFETR","EPOCH":"2022-03-13T20:17:48.734016","FILE":"3358388","ELEMENT_SET_NO":"999","TIME_SYSTEM":"UTC","MEAN_MOTION":"15.06383387","MEAN_MOTION_DOT":"-0.00005038","OBJECT_NAME":"STARLINK-1124","CLASSIFICATION_TYPE":"U","EPHEMERIS_TYPE":"0","ECCENTRICITY":"0.00017240"},{"OBJECT_TYPE":"PAYLOAD","RCS_SIZE":"LARGE","OBJECT_ID":"2020-001AS","COUNTRY_CODE":"US","INCLINATION":"53.0547","NORAD_CAT_ID":"44954","MEAN_MOTION_DDOT":"0.0000000000000","DECAY_DATE":null,"BSTAR":"-0.00015263000000","PERIOD":"95.593","MEAN_ANOMALY":"305.3445","REF_FRAME":"TEME","APOAPSIS":"548.487","CENTER_NAME":"EARTH","MEAN_ELEMENT_THEORY":"SGP4","GP_ID":"198648093","SEMIMAJOR_AXIS":"6925.371","TLE_LINE1":"1 44954U 20001AS  22072.52780971 -.00002554  00000-0 -15263-3 0  9999","REV_AT_EPOCH":"12072","ECCENTRICITY":"0.00018060","EPHEMERIS_TYPE":"0","CLASSIFICATION_TYPE":"U","OBJECT_NAME":"STARLINK-1066","MEAN_MOTION_DOT":"-0.00002554","MEAN_MOTION":"15.06392546","TIME_SYSTEM":"UTC","EPOCH":"2022-03-13T12:40:02.758944","FILE":"3357855","ELEMENT_SET_NO":"999","TLE_LINE2":"2 44954  53.0547   8.0617 0001806  54.7713 305.3445 15.06392546120723","SITE":"AFETR","LAUNCH_DATE":"2020-01-07","ARG_OF_PERICENTER":"54.7713","RA_OF_ASC_NODE":"8.0617","PERIAPSIS":"545.986"},{"TLE_LINE2":"2 44955  53.0538   8.0550 0001724  54.4198 305.6951 15.06399587120720","SITE":"AFETR","LAUNCH_DATE":"2020-01-07","ARG_OF_PERICENTER":"54.4198","PERIAPSIS":"546.021","RA_OF_ASC_NODE":"8.0550","MEAN_MOTION":"15.06399587","TIME_SYSTEM":"UTC","FILE":"3357855","EPOCH":"2022-03-13T12:50:39.358464","ELEMENT_SET_NO":"999","CLASSIFICATION_TYPE":"U","OBJECT_NAME":"STARLINK-1069","MEAN_MOTION_DOT":"-0.00000868","ECCENTRICITY":"0.00017240","EPHEMERIS_TYPE":"0","GP_ID":"198647844","SEMIMAJOR_AXIS":"6925.350","TLE_LINE1":"1 44955U 20001AT  22072.53517776 -.00000868  00000-0 -39347-4 0  9998","REV_AT_EPOCH":"12072","BSTAR":"-0.00003934700000","PERIOD":"95.592","MEAN_ANOMALY":"305.6951","REF_FRAME":"TEME","APOAPSIS":"548.409","MEAN_ELEMENT_THEORY":"SGP4","CENTER_NAME":"EARTH","COUNTRY_CODE":"US","INCLINATION":"53.0538","NORAD_CAT_ID":"44955","DECAY_DATE":null,"MEAN_MOTION_DDOT":"0.0000000000000","OBJECT_TYPE":"PAYLOAD","RCS_SIZE":"LARGE","OBJECT_ID":"2020-001AT"},{"RCS_SIZE":"LARGE","OBJECT_TYPE":"PAYLOAD","OBJECT_ID":"2020-001AU","COUNTRY_CODE":"US","INCLINATION":"53.0568","NORAD_CAT_ID":"44956","MEAN_MOTION_DDOT":"0.0000000000000","DECAY_DATE":null,"BSTAR":"-0.00004912600000","PERIOD":"95.593","MEAN_ANOMALY":"296.5061","REF_FRAME":"TEME","APOAPSIS":"548.232","MEAN_ELEMENT_THEORY":"SGP4","CENTER_NAME":"EARTH","GP_ID":"198663296","SEMIMAJOR_AXIS":"6925.366","TLE_LINE1":"1 44956U 20001AU  22072.53150268 -.00001013  00000-0 -49126-4 0  9997","REV_AT_EPOCH":"12078","ECCENTRICITY":"0.00014450","EPHEMERIS_TYPE":"0","CLASSIFICATION_TYPE":"U","OBJECT_NAME":"STARLINK-1070","MEAN_MOTION_DOT":"-0.00001013","MEAN_MOTION":"15.06394218","TIME_SYSTEM":"UTC","EPOCH":"2022-03-13T12:45:21.831552","FILE":"3358238","ELEMENT_SET_NO":"999","TLE_LINE2":"2 44956  53.0568   8.0636 0001445  63.6076 296.5061 15.06394218120788","SITE":"AFETR","LAUNCH_DATE":"2020-01-07","ARG_OF_PERICENTER":"63.6076","PERIAPSIS":"546.231","RA_OF_ASC_NODE":"8.0636"},{"RCS_SIZE":"LARGE","OBJECT_TYPE":"PAYLOAD","OBJECT_ID":"2020-001AV","COUNTRY_CODE":"US","INCLINATION":"53.0561","DECAY_DATE":null,"MEAN_MOTION_DDOT":"0.0000000000000","NORAD_CAT_ID":"44957","PERIOD":"95.593","MEAN_ANOMALY":"289.9931","REF_FRAME":"TEME","BSTAR":"-0.00000495210000","APOAPSIS":"548.391","MEAN_ELEMENT_THEORY":"SGP4","CENTER_NAME":"EARTH","TLE_LINE1":"1 44957U 20001AV  22072.95538678 -.00000355  00000-0 -49521-5 0  9997","REV_AT_EPOCH":"12084","GP_ID":"198687015","SEMIMAJOR_AXIS":"6925.373","ECCENTRICITY":"0.00016650","EPHEMERIS_TYPE":"0","CLASSIFICATION_TYPE":"U","MEAN_MOTION_DOT":"-0.00000355","OBJECT_NAME":"STARLINK-1074","TIME_SYSTEM":"UTC","MEAN_MOTION":"15.06392018","EPOCH":"2022-03-13T22:55:45.417792","FILE":"3358388","ELEMENT_SET_NO":"999","LAUNCH_DATE":"2020-01-07","TLE_LINE2":"2 44957  53.0561   6.1656 0001665  70.1238 289.9931 15.06392018120845","SITE":"AFETR","ARG_OF_PERICENTER":"70.1238","PERIAPSIS":"546.085","RA_OF_ASC_NODE":"6.1656"},{"OBJECT_NAME":"STARLINK-1076","MEAN_MOTION_DOT":"-0.00000711","CLASSIFICATION_TYPE":"U","EPHEMERIS_TYPE":"0","ECCENTRICITY":"0.00014470","ARG_OF_PERICENTER":"53.0777","PERIAPSIS":"546.236","RA_OF_ASC_NODE":"6.3852","TLE_LINE2":"2 44959  53.0545   6.3852 0001447  53.0777 307.0344 15.06392057120837","SITE":"AFETR","LAUNCH_DATE":"2020-01-07","EPOCH":"2022-03-13T21:41:26.582496","FILE":"3358388","ELEMENT_SET_NO":"999","MEAN_MOTION":"15.06392057","TIME_SYSTEM":"UTC","NORAD_CAT_ID":"44959","MEAN_MOTION_DDOT":"0.0000000000000","DECAY_DATE":null,"COUNTRY_CODE":"US","INCLINATION":"53.0545","OBJECT_ID":"2020-001AX","RCS_SIZE":"LARGE","OBJECT_TYPE":"PAYLOAD","GP_ID":"198686762","SEMIMAJOR_AXIS":"6925.373","TLE_LINE1":"1 44959U 20001AX  22072.90377989 -.00000711  00000-0 -28877-4 0  9996","REV_AT_EPOCH":"12083","APOAPSIS":"548.240","MEAN_ELEMENT_THEORY":"SGP4","CENTER_NAME":"EARTH","BSTAR":"-0.00002887700000","MEAN_ANOMALY":"307.0344","PERIOD":"95.593","REF_FRAME":"TEME"},{"TIME_SYSTEM":"UTC","MEAN_MOTION":"15.06388355","ELEMENT_SET_NO":"999","EPOCH":"2022-03-13T21:52:03.617472","FILE":"3358388","LAUNCH_DATE":"2020-01-07","SITE":"AFETR","TLE_LINE2":"2 44961  53.0569   6.3589 0001449  67.0377 293.0765 15.06388355120844","RA_OF_ASC_NODE":"6.3589","PERIAPSIS":"546.246","ARG_OF_PERICENTER":"67.0377","ECCENTRICITY":"0.00014490","EPHEMERIS_TYPE":"0","CLASSIFICATION_TYPE":"U","MEAN_MOTION_DOT":"-0.00000971","OBJECT_NAME":"STARLINK-1080","REF_FRAME":"TEME","PERIOD":"95.593","MEAN_ANOMALY":"293.0765","BSTAR":"-0.00004633100000","MEAN_ELEMENT_THEORY":"SGP4","CENTER_NAME":"EARTH","APOAPSIS":"548.253","REV_AT_EPOCH":"12084","TLE_LINE1":"1 44961U 20001AZ  22072.91115298 -.00000971  00000-0 -46331-4 0  9996","GP_ID":"198686020","SEMIMAJOR_AXIS":"6925.384","OBJECT_TYPE":"PAYLOAD","RCS_SIZE":"LARGE","OBJECT_ID":"2020-001AZ","INCLINATION":"53.0569","COUNTRY_CODE":"US","DECAY_DATE":null,"MEAN_MOTION_DDOT":"0.0000000000000","NORAD_CAT_ID":"44961"},{"SITE":"AFETR","TLE_LINE2":"2 44963  53.0004 358.9105 0002668 110.4459 249.6818 15.11024969121658","LAUNCH_DATE":"2020-01-07","RA_OF_ASC_NODE":"358.9105","PERIAPSIS":"531.231","ARG_OF_PERICENTER":"110.4459","MEAN_MOTION":"15.11024969","TIME_SYSTEM":"UTC","ELEMENT_SET_NO":"999","FILE":"3358388","EPOCH":"2022-03-13T22:32:57.041376","CLASSIFICATION_TYPE":"U","OBJECT_NAME":"STARLINK-1085","MEAN_MOTION_DOT":"0.00022943","ECCENTRICITY":"0.00026680","EPHEMERIS_TYPE":"0","GP_ID":"198685768","SEMIMAJOR_AXIS":"6911.210","TLE_LINE1":"1 44963U 20001BB  22072.93954909  .00022943  00000-0  13702-2 0  9995","REV_AT_EPOCH":"12165","BSTAR":"0.00137020000000","REF_FRAME":"TEME","PERIOD":"95.300","MEAN_ANOMALY":"249.6818","MEAN_ELEMENT_THEORY":"SGP4","CENTER_NAME":"EARTH","APOAPSIS":"534.919","INCLINATION":"53.0004","COUNTRY_CODE":"US","NORAD_CAT_ID":"44963","DECAY_DATE":null,"MEAN_MOTION_DDOT":"0.0000000000000","OBJECT_TYPE":"PAYLOAD","RCS_SIZE":"LARGE","OBJECT_ID":"2020-001BB"},{"INCLINATION":"53.0556","COUNTRY_CODE":"US","DECAY_DATE":null,"MEAN_MOTION_DDOT":"0.0000000000000","NORAD_CAT_ID":"44964","RCS_SIZE":"LARGE","OBJECT_TYPE":"PAYLOAD","OBJECT_ID":"2020-001BC","REV_AT_EPOCH":"12078","TLE_LINE1":"1 44964U 20001BC  22072.54256441 -.00001007  00000-0 -48730-4 0  9990","GP_ID":"198665356","SEMIMAJOR_AXIS":"6925.392","REF_FRAME":"TEME","MEAN_ANOMALY":"292.2588","PERIOD":"95.593","BSTAR":"-0.00004873000000","CENTER_NAME":"EARTH","MEAN_ELEMENT_THEORY":"SGP4","APOAPSIS":"548.156","CLASSIFICATION_TYPE":"U","MEAN_MOTION_DOT":"-0.00001007","OBJECT_NAME":"STARLINK-1086","ECCENTRICITY":"0.00012980","EPHEMERIS_TYPE":"0","LAUNCH_DATE":"2020-01-07","SITE":"AFETR","TLE_LINE2":"2 44964  53.0556   8.0002 0001298  67.8539 292.2588 15.06385707120787","PERIAPSIS":"546.358","RA_OF_ASC_NODE":"8.0002","ARG_OF_PERICENTER":"67.8539","TIME_SYSTEM":"UTC","MEAN_MOTION":"15.06385707","ELEMENT_SET_NO":"999","FILE":"3358299","EPOCH":"2022-03-13T13:01:17.565024"}];
